API VERSION: 1.2
API SOURCE: NASA/JPL Horizons API



*******************************************************************************
Ephemeris / API_USER Sat Jul 11 19:36:44 2026 Pasadena, USA      / Horizons    
*******************************************************************************
Target body name: 2060 Chiron (1977 UB)           {source: JPL#171}
Center body name: Earth (399)                     {source: DE441}
Center-site name: GEOCENTRIC
*******************************************************************************
Start time      : A.D. 1960-Jan-01 00:00:00.0000 UT      
Stop  time      : A.D. 1965-Jan-01 00:00:00.0000 UT      
Step-size       : 2880 minutes
*******************************************************************************
Target pole/equ : undefined
Target radii    : 83. km                                                       
Center geodetic : 0.0, 0.0, -6378.137             {E-lon(deg),Lat(deg),Alt(km)}
Center cylindric: 0.0, 0.0, 0.0                   {E-lon(deg),Dxy(km),Dz(km)}
Center pole/equ : ITRF93                          {East-longitude positive}
Center radii    : 6378.137, 6378.137, 6356.752 km {Equator_a, b, pole_c}       
Target primary  : Sun
Vis. interferer : MOON (R_eq= 1737.400) km        {source: DE441}
Rel. light bend : Sun                             {source: DE441}
Rel. lght bnd GM: 1.3271E+11 km^3/s^2                                          
Small-body perts: Yes                             {source: SB441-N16}
Atmos refraction: NO (AIRLESS)
RA format       : DEG
Time format     : CAL 
Calendar mode   : Mixed Julian/Gregorian
EOP file        : eop.260710.p261006                                           
EOP coverage    : DATA-BASED 1962-JAN-20 TO 2026-JUL-10. PREDICTS-> 2026-OCT-05
Units conversion: 1 au= 149597870.700 km, c= 299792.458 km/s, 1 day= 86400.0 s 
Table cut-offs 1: Elevation (-90.0deg=NO ),Airmass (>38.000=NO), Daylight (NO )
Table cut-offs 2: Solar elongation (  0.0,180.0=NO ),Local Hour Angle( 0.0=NO )
Table cut-offs 3: RA/DEC angular rate (     0.0=NO )                           
*******************************************************************************
Initial IAU76/J2000 heliocentric ecliptic osculating elements (au, days, deg.):
  EPOCH=  2457916.5 ! 2017-Jun-12.00 (TDB)         Residual RMS= .19933        
   EC= .3824171374703196   QR= 8.427522999110739   TP= 2450143.7110841358      
   OM= 209.2011323125998   W=  339.6529896907077   IN= 6.94959060447848        
  Equivalent ICRF heliocentric cartesian coordinates (au, au/d):
   X= 1.843374627977423E+01  Y=-1.877818593473934E+00  Z= 5.548833989583914E-01
  VX= 7.316266023833624E-04 VY= 2.960187278972600E-03 VZ= 9.710586201315230E-04
Asteroid physical parameters (km, seconds, rotational period in hours):        
   GM= n.a.                RAD= 83.                ROTPER= 5.918               
   H= 5.54                 G= .150                 B-V= .704                   
                           ALBEDO= .150            STYP= Cb                    
*******************************************************************************
 Date__(UT)__HR:MN        ObsEcLon    ObsEcLat
**********************************************
$$SOE
 1960-Oct-15 00:00     327.6795885   6.1323320
 1960-Oct-17 00:00     327.6357938   6.1199934
 1960-Oct-19 00:00     327.5956734   6.1074436
 1960-Oct-21 00:00     327.5593365   6.0946984
 1960-Oct-23 00:00     327.5268884   6.0817743
 1960-Oct-25 00:00     327.4983885   6.0686883
 1960-Oct-27 00:00     327.4738404   6.0554582
 1960-Oct-29 00:00     327.4532357   6.0421018
 1960-Oct-31 00:00     327.4365981   6.0286368
 1960-Nov-02 00:00     327.4239840   6.0150801
 1960-Nov-04 00:00     327.4154492   6.0014480
 1960-Nov-06 00:00     327.4110219   5.9877561
 1960-Nov-08 00:00     327.4107018   5.9740195
 1960-Nov-10 00:00     327.4144772   5.9602530
 1960-Nov-12 00:00     327.4223400   5.9464711
 1960-Nov-14 00:00     327.4342922   5.9326882
 1960-Nov-16 00:00     327.4503524   5.9189188
 1960-Nov-18 00:00     327.4705543   5.9051772
 1960-Nov-20 00:00     327.4949199   5.8914782
 1960-Nov-22 00:00     327.5234143   5.8778369
 1960-Nov-24 00:00     327.5559495   5.8642686
 1960-Nov-26 00:00     327.5924492   5.8507882
 1960-Nov-28 00:00     327.6328834   5.8374100
 1960-Nov-30 00:00     327.6772430   5.8241474
 1960-Dec-02 00:00     327.7255061   5.8110127
 1960-Dec-04 00:00     327.7776225   5.7980175
 1960-Dec-06 00:00     327.8335204   5.7851728
 1960-Dec-08 00:00     327.8931227   5.7724892
 1960-Dec-10 00:00     327.9563609   5.7599768
 1960-Dec-12 00:00     328.0231813   5.7476456
 1960-Dec-14 00:00     328.0935472   5.7355053
 1960-Dec-16 00:00     328.1674329   5.7235656
 1960-Dec-18 00:00     328.2447950   5.7118366
 1960-Dec-20 00:00     328.3255289   5.7003283
 1960-Dec-22 00:00     328.4094847   5.6890512
 1960-Dec-24 00:00     328.4965464   5.6780152
 1960-Dec-26 00:00     328.5866512   5.6672291
 1960-Dec-28 00:00     328.6797450   5.6567008
 1960-Dec-30 00:00     328.7757513   5.6464375
 1961-Jan-01 00:00     328.8745687   5.6364454
 1961-Jan-03 00:00     328.9760823   5.6267302
 1961-Jan-05 00:00     329.0801778   5.6172974
 1961-Jan-07 00:00     329.1867550   5.6081520
 1961-Jan-09 00:00     329.2957314   5.5992989
 1961-Jan-11 00:00     329.4070413   5.5907428
 1961-Jan-13 00:00     329.5206225   5.5824886
 1961-Jan-15 00:00     329.6363898   5.5745414
 1961-Jan-17 00:00     329.7541989   5.5669067
 1961-Jan-19 00:00     329.8738738   5.5595899
 1961-Jan-21 00:00     329.9952868   5.5525960
 1961-Jan-23 00:00     330.1183637   5.5459293
 1961-Jan-25 00:00     330.2430263   5.5395928
 1961-Jan-27 00:00     330.3691682   5.5335888
 1961-Jan-29 00:00     330.4966631   5.5279191
 1961-Jan-31 00:00     330.6253788   5.5225850
 1961-Feb-02 00:00     330.7551905   5.5175874
 1961-Feb-04 00:00     330.8859904   5.5129273
 1961-Feb-06 00:00     331.0176912   5.5086054
 1961-Feb-08 00:00     331.1502185   5.5046226
 1961-Feb-10 00:00     331.2834934   5.5009800
 1961-Feb-12 00:00     331.4174059   5.4976790
 1961-Feb-14 00:00     331.5517968   5.4947216
 1961-Feb-16 00:00     331.6864924   5.4921098
 1961-Feb-18 00:00     331.8213736   5.4898446
 1961-Feb-20 00:00     331.9563672   5.4879244
 1961-Feb-22 00:00     332.0913880   5.4863453
 1961-Feb-24 00:00     332.2263222   5.4851061
 1961-Feb-26 00:00     332.3610392   5.4842082
 1961-Feb-28 00:00     332.4954075   5.4836512
 1961-Mar-02 00:00     332.6293083   5.4834327
 1961-Mar-04 00:00     332.7626434   5.4835498
 1961-Mar-06 00:00     332.8953355   5.4839998
 1961-Mar-08 00:00     333.0273158   5.4847801
 1961-Mar-10 00:00     333.1584997   5.4858884
 1961-Mar-12 00:00     333.2887657   5.4873231
 1961-Mar-14 00:00     333.4179572   5.4890824
 1961-Mar-16 00:00     333.5459251   5.4911650
 1961-Mar-18 00:00     333.6725753   5.4935686
 1961-Mar-20 00:00     333.7978457   5.4962905
 1961-Mar-22 00:00     333.9216515   5.4993265
 1961-Mar-24 00:00     334.0438769   5.5026721
 1961-Mar-26 00:00     334.1643987   5.5063222
 1961-Mar-28 00:00     334.2831026   5.5102714
 1961-Mar-30 00:00     334.3998911   5.5145142
 1961-Apr-01 00:00     334.5146881   5.5190449
 1961-Apr-03 00:00     334.6274377   5.5238582
 1961-Apr-05 00:00     334.7380853   5.5289485
 1961-Apr-07 00:00     334.8465493   5.5343111
 1961-Apr-09 00:00     334.9527072   5.5399412
 1961-Apr-11 00:00     335.0564202   5.5458343
 1961-Apr-13 00:00     335.1575781   5.5519856
 1961-Apr-15 00:00     335.2561198   5.5583896
 1961-Apr-17 00:00     335.3519991   5.5650399
 1961-Apr-19 00:00     335.4451424   5.5719291
 1961-Apr-21 00:00     335.5354498   5.5790491
 1961-Apr-23 00:00     335.6228200   5.5863913
 1961-Apr-25 00:00     335.7071671   5.5939470
 1961-Apr-27 00:00     335.7884256   5.6017073
 1961-Apr-29 00:00     335.8665526   5.6096632
 1961-May-01 00:00     335.9415228   5.6178056
 1961-May-03 00:00     336.0133061   5.6261262
 1961-May-05 00:00     336.0818335   5.6346165
 1961-May-07 00:00     336.1469971   5.6432688
 1961-May-09 00:00     336.2086940   5.6520749
 1961-May-11 00:00     336.2668670   5.6610264
 1961-May-13 00:00     336.3214976   5.6701138
 1961-May-15 00:00     336.3725654   5.6793267
 1961-May-17 00:00     336.4200221   5.6886539
 1961-May-19 00:00     336.4638011   5.6980834
 1961-May-21 00:00     336.5038410   5.7076029
 1961-May-23 00:00     336.5401006   5.7171999
 1961-May-25 00:00     336.5725626   5.7268616
 1961-May-27 00:00     336.6012321   5.7365757
 1961-May-29 00:00     336.6261285   5.7463296
 1961-May-31 00:00     336.6472596   5.7561114
 1961-Jun-02 00:00     336.6645866   5.7659095
 1961-Jun-04 00:00     336.6780378   5.7757129
 1961-Jun-06 00:00     336.6875698   5.7855102
 1961-Jun-08 00:00     336.6931945   5.7952892
 1961-Jun-10 00:00     336.6949484   5.8050371
 1961-Jun-12 00:00     336.6928532   5.8147397
 1961-Jun-14 00:00     336.6869060   5.8243826
 1961-Jun-16 00:00     336.6770951   5.8339506
 1961-Jun-18 00:00     336.6634209   5.8434286
 1961-Jun-20 00:00     336.6459074   5.8528013
 1961-Jun-22 00:00     336.6246041   5.8620538
 1961-Jun-24 00:00     336.5995816   5.8711711
 1961-Jun-26 00:00     336.5709194   5.8801391
 1961-Jun-28 00:00     336.5386791   5.8889442
 1961-Jun-30 00:00     336.5028725   5.8975734
 1961-Jul-02 00:00     336.4634884   5.9060144
 1961-Jul-04 00:00     336.4205643   5.9142549
 1961-Jul-06 00:00     336.3741945   5.9222816
 1961-Jul-08 00:00     336.3244807   5.9300806
 1961-Jul-10 00:00     336.2715019   5.9376375
 1961-Jul-12 00:00     336.2153178   5.9449375
 1961-Jul-14 00:00     336.1559884   5.9519659
 1961-Jul-16 00:00     336.0935908   5.9587083
 1961-Jul-18 00:00     336.0282271   5.9651506
 1961-Jul-20 00:00     335.9600235   5.9712797
 1961-Jul-22 00:00     335.8891230   5.9770828
 1961-Jul-24 00:00     335.8156694   5.9825484
 1961-Jul-26 00:00     335.7397813   5.9876658
 1961-Jul-28 00:00     335.6615295   5.9924256
